[{"OBJECT_NAME":"STARLINK-30500","OBJECT_ID":"2023-160B","EPOCH":"2026-03-09T01:54:49.318272","MEAN_MOTION":15.26745168,"ECCENTRICITY":9.546e-5,"INCLINATION":42.9967,"RA_OF_ASC_NODE":81.2229,"ARG_OF_PERICENTER":267.733,"MEAN_ANOMALY":92.3412,"EPHEMERIS_TYPE":0,"CLASSIFICATION_TYPE":"U","NORAD_CAT_ID":58076,"ELEMENT_SET_NO":999,"REV_AT_EPOCH":13285,"BSTAR":-5.1834422e-5,"MEAN_MOTION_DOT":-1.65e-5,"MEAN_MOTION_DDOT":0},{"OBJECT_NAME":"VSP RF B1","OBJECT_ID":"2024-043AR","EPOCH":"2026-03-09T22:40:29.479296","MEAN_MOTION":15.26694159,"ECCENTRICITY":0.00102608,"INCLINATION":97.5446,"RA_OF_ASC_NODE":204.7052,"ARG_OF_PERICENTER":220.7435,"MEAN_ANOMALY":139.3037,"EPHEMERIS_TYPE":0,"CLASSIFICATION_TYPE":"U","NORAD_CAT_ID":59137,"ELEMENT_SET_NO":999,"REV_AT_EPOCH":11187,"BSTAR":0.00024406819,"MEAN_MOTION_DOT":6.341e-5,"MEAN_MOTION_DDOT":0}]
